NORAD_CAT_ID,OBJECT_NAME,OBJECT_TYPE,EPOCH,MEAN_MOTION,ECCENTRICITY,INCLINATION,RA_OF_ASC_NODE,ARG_OF_PERICENTER,MEAN_ANOMALY,BSTAR,MEAN_MOTION_DOT,MEAN_MOTION_DDOT,TLE_LINE0,TLE_LINE1,TLE_LINE2,SEMIMAJOR_AXIS,PERIOD,APOGEE,PERIGEE,DECAYED
51883.0,STARLINK-3576,PAYLOAD,2024-02-25 12:06:52,15.08853692,0.0001289,53.2158,95.5901,91.6241,268.4899,0.00012146,1.646e-05,0.0,0 STARLINK-3576,1 51883U 22022AH  24056.50477429  .00001646  00000-0  12146-3 0  9992,2 51883  53.2158  95.5901 0001289  91.6241 268.4899 15.08853692111043,6917.839,95.437,540.595,538.812,0.0
51883.0,STARLINK-3576,PAYLOAD,2024-02-25 20:03:48,15.08854348,0.000132,53.2157,94.1025,99.1845,260.9296,1.6865e-05,-1.9e-07,0.0,0 STARLINK-3576,1 51883U 22022AH  24056.83597396 -.00000019  00000-0  16865-4 0  9991,2 51883  53.2157  94.1025 0001320  99.1845 260.9296 15.08854348111095,6917.837,95.437,540.615,538.788,0.0
51883.0,STARLINK-3576,PAYLOAD,2024-02-26 08:46:53,15.08845091,0.0001558,53.2171,91.7209,98.7917,261.3251,4.9177e-05,4.95e-06,0.0,0 STARLINK-3576,1 51883U 22022AH  24057.36590019  .00000495  00000-0  49177-4 0  9994,2 51883  53.2171  91.7209 0001558  98.7917 261.3251 15.08845091111176,6917.865,95.437,540.808,538.652,0.0
51883.0,STARLINK-3576,PAYLOAD,2024-02-27 08:37:41,15.0883496,0.0001442,53.2157,87.2617,91.5095,268.6063,-2.8881e-05,-7.47e-06,0.0,0 STARLINK-3576,1 51883U 22022AH  24058.35950976 -.00000747  00000-0 -28881-4 0  9997,2 51883  53.2157  87.2617 0001442  91.5095 268.6063 15.08834960111324,6917.896,95.438,540.758,538.763,0.0
51883.0,STARLINK-3576,PAYLOAD,2024-02-28 08:28:28,15.0884143,0.0001302,53.2165,82.8038,89.263,270.8511,0.00011893,1.605e-05,0.0,0 STARLINK-3576,1 51883U 22022AH  24059.35310373  .00001605  00000-0  11893-3 0  9995,2 51883  53.2165  82.8038 0001302  89.2630 270.8511 15.08841430111474,6917.876,95.437,540.642,538.84,0.0
51883.0,STARLINK-3576,PAYLOAD,2024-02-28 18:00:46,15.08844693,0.0001267,53.2162,81.02,92.686,267.4277,2.2416e-05,6.9e-07,0.0,0 STARLINK-3576,1 51883U 22022AH  24059.75054347  .00000069  00000-0  22416-4 0  9992,2 51883  53.2162  81.0200 0001267  92.6860 267.4277 15.08844693111538,6917.866,95.437,540.608,538.855,0.0
51883.0,STARLINK-3576,PAYLOAD,2024-02-29 05:08:29,15.08823166,0.0001527,53.2184,78.9407,97.9306,262.186,0.00018931,2.725e-05,0.0,0 STARLINK-3576,1 51883U 22022AH  24060.21423530  .00002725  00000-0  18931-3 0  9996,2 51883  53.2184  78.9407 0001527  97.9306 262.1860 15.08823166111608,6917.932,95.439,540.853,538.74,0.0
51883.0,STARLINK-3576,PAYLOAD,2024-02-29 08:19:16,15.08833357,0.000145,53.218,78.3451,101.9316,258.1839,3.2729e-05,2.33e-06,0.0,0 STARLINK-3576,1 51883U 22022AH  24060.34671452  .00000233  00000-0  32729-4 0  9992,2 51883  53.2180  78.3451 0001450 101.9316 258.1839 15.08833357111625,6917.901,95.438,540.769,538.763,0.0
51883.0,STARLINK-3576,PAYLOAD,2024-02-29 17:51:35,15.0883164,0.0001459,53.2179,76.5611,95.0069,265.109,1.4677e-05,-5.4e-07,0.0,0 STARLINK-3576,1 51883U 22022AH  24060.74415804 -.00000054  00000-0  14677-4 0  9997,2 51883  53.2179  76.5611 0001459  95.0069 265.1090 15.08831640111684,6917.906,95.438,540.78,538.762,0.0
51883.0,STARLINK-3576,PAYLOAD,2024-03-01 11:20:49,15.0884737,0.0001862,53.2176,73.2892,104.8139,255.3059,-1.6573e-05,-5.52e-06,0.0,0 STARLINK-3576,1 51883U 22022AH  24061.47279029 -.00000552  00000-0 -16573-4 0  9996,2 51883  53.2176  73.2892 0001862 104.8139 255.3059 15.08847370111796,6917.858,95.437,541.011,538.435,0.0
51883.0,STARLINK-3576,PAYLOAD,2024-03-01 17:42:21,15.08842334,0.0001422,53.2171,72.0994,93.6941,266.4214,1.5498e-05,-4.1e-07,0.0,0 STARLINK-3576,1 51883U 22022AH  24061.73775279 -.00000041  00000-0  15498-4 0  9990,2 51883  53.2171  72.0994 0001422  93.6941 266.4214 15.08842334111835,6917.873,95.437,540.722,538.755,0.0
51883.0,STARLINK-3576,PAYLOAD,2024-03-02 08:00:49,15.08845608,0.0001445,53.2168,69.4227,91.875,268.2407,0.00014792,2.067e-05,0.0,0 STARLINK-3576,1 51883U 22022AH  24062.33390790  .00002067  00000-0  14792-3 0  9992,2 51883  53.2168  69.4227 0001445  91.8750 268.2407 15.08845608111924,6917.863,95.437,540.728,538.729,0.0
51883.0,STARLINK-3576,PAYLOAD,2024-03-02 17:33:08,15.08843875,0.000147,53.2171,67.6328,77.3637,282.7519,5.6394e-06,-1.98e-06,0.0,0 STARLINK-3576,1 51883U 22022AH  24062.73135223 -.00000198  00000-0  56394-5 0  9994,2 51883  53.2171  67.6328 0001470  77.3637 282.7519 15.08843875111986,6917.869,95.437,540.75,538.717,0.0
51883.0,STARLINK-3576,PAYLOAD,2024-03-03 07:51:37,15.0883985,0.0001383,53.2166,64.9584,103.7668,256.3478,-5.0354e-06,-3.68e-06,0.0,0 STARLINK-3576,1 51883U 22022AH  24063.32751703 -.00000368  00000-0 -50354-5 0  9997,2 51883  53.2166  64.9584 0001383 103.7668 256.3478 15.08839850112075,6917.881,95.438,540.703,538.789,0.0
51883.0,STARLINK-3576,PAYLOAD,2024-03-04 04:31:37,15.08849913,0.0001494,53.217,61.093,86.1283,273.988,7.3406e-05,8.81e-06,0.0,0 STARLINK-3576,1 51883U 22022AH  24064.18862740  .00000881  00000-0  73406-4 0  9996,2 51883  53.2170  61.0930 0001494  86.1283 273.9880 15.08849913112201,6917.85,95.437,540.749,538.682,0.0
51883.0,STARLINK-3576,PAYLOAD,2024-03-04 06:07:00,15.08855744,0.0001504,53.2167,60.7958,90.3053,269.8111,6.909e-05,8.12e-06,0.0,0 STARLINK-3576,1 51883U 22022AH  24064.25486368  .00000812  00000-0  69090-4 0  9990,2 51883  53.2167  60.7958 0001504  90.3053 269.8111 15.08855744112218,6917.832,95.437,540.738,538.657,0.0
51883.0,STARLINK-3576,PAYLOAD,2024-03-04 17:14:42,15.08842246,0.0001719,53.2184,58.7142,89.4217,270.6972,5.6365e-05,6.09e-06,0.0,0 STARLINK-3576,1 51883U 22022AH  24064.71855115  .00000609  00000-0  56365-4 0  9996,2 51883  53.2184  58.7142 0001719  89.4217 270.6972 15.08842246112283,6917.874,95.437,540.928,538.549,0.0
51883.0,STARLINK-3576,PAYLOAD,2024-03-05 05:57:47,15.08852589,0.0001831,53.2179,56.334,100.7545,259.3654,0.00013721,1.897e-05,0.0,0 STARLINK-3576,1 51883U 22022AH  24065.24846199  .00001897  00000-0  13721-3 0  9995,2 51883  53.2179  56.3340 0001831 100.7545 259.3654 15.08852589112368,6917.842,95.437,540.974,538.44,0.0
51883.0,STARLINK-3576,PAYLOAD,2024-03-06 04:13:12,15.08840346,0.0001702,53.2167,52.1706,107.0054,253.1125,-5.2322e-05,-1.121e-05,0.0,0 STARLINK-3576,1 51883U 22022AH  24066.17583432 -.00001121  00000-0 -52322-4 0  9999,2 51883  53.2167  52.1706 0001702 107.0054 253.1125 15.08840346112506,6917.879,95.438,540.922,538.567,0.0
51883.0,STARLINK-3576,PAYLOAD,2024-03-06 08:59:21,15.08841449,0.0001636,53.2169,51.282,92.6342,267.4837,-0.0001085,-2.014e-05,0.0,0 STARLINK-3576,1 51883U 22022AH  24066.37455624 -.00002014  00000-0 -10850-3 0  9993,2 51883  53.2169  51.2820 0001636  92.6342 267.4837 15.08841449112536,6917.876,95.437,540.873,538.609,0.0
51883.0,STARLINK-3576,PAYLOAD,2024-03-07 08:50:08,15.08846934,0.0001681,53.2174,46.8202,96.7341,263.3843,-4.574e-05,-1.016e-05,0.0,0 STARLINK-3576,1 51883U 22022AH  24067.36815490 -.00001016  00000-0 -45740-4 0  9992,2 51883  53.2174  46.8202 0001681  96.7341 263.3843 15.08846934112682,6917.859,95.437,540.887,538.561,0.0
51883.0,STARLINK-3576,PAYLOAD,2024-03-08 02:19:24,15.08822824,0.000173,53.2201,43.5549,92.6689,267.4501,0.00023489,3.45e-05,0.0,0 STARLINK-3576,1 51883U 22022AH  24068.09680637  .00003450  00000-0  23489-3 0  9993,2 51883  53.2201  43.5549 0001730  92.6689 267.4501 15.08822824112796,6917.933,95.439,540.995,538.601,0.0
51883.0,STARLINK-3576,PAYLOAD,2024-03-08 05:30:10,15.08832281,0.0001715,53.2177,42.9557,92.905,267.2138,0.00013031,1.786e-05,0.0,0 STARLINK-3576,1 51883U 22022AH  24068.22928443  .00001786  00000-0  13031-3 0  9990,2 51883  53.2177  42.9557 0001715  92.9050 267.2138 15.08832281112813,6917.904,95.438,540.955,538.583,0.0
51883.0,STARLINK-3576,PAYLOAD,2024-03-08 15:02:28,15.08844577,0.0001614,53.2182,41.1692,83.1075,277.0101,0.00020316,2.947e-05,0.0,0 STARLINK-3576,1 51883U 22022AH  24068.62671556  .00002947  00000-0  20316-3 0  9998,2 51883  53.2182  41.1692 0001614  83.1075 277.0101 15.08844577112873,6917.866,95.437,540.848,538.615,0.0
51883.0,STARLINK-3576,PAYLOAD,2024-03-09 05:20:57,15.08836212,0.0001737,53.2182,38.4938,84.1431,275.9759,2.7846e-05,1.55e-06,0.0,0 STARLINK-3576,1 51883U 22022AH  24069.22288912  .00000155  00000-0  27846-4 0  9990,2 51883  53.2182  38.4938 0001737  84.1431 275.9759 15.08836212112961,6917.892,95.438,540.959,538.555,0.0
51883.0,STARLINK-3576,PAYLOAD,2024-03-09 06:56:20,15.08838649,0.0001793,53.2184,38.1966,84.9853,275.1344,4.2421e-05,3.87e-06,0.0,0 STARLINK-3576,1 51883U 22022AH  24069.28912827  .00000387  00000-0  42421-4 0  9998,2 51883  53.2184  38.1966 0001793  84.9853 275.1344 15.08838649112978,6917.885,95.438,540.99,538.509,0.0
51883.0,STARLINK-3576,PAYLOAD,2024-03-10 05:11:44,15.08843034,0.0001771,53.2178,34.0333,82.9328,277.1865,0.00011926,1.611e-05,0.0,0 STARLINK-3576,1 51883U 22022AH  24070.21648304  .00001611  00000-0  11926-3 0  9995,2 51883  53.2178  34.0333 0001771  82.9328 277.1865 15.08843034113116,6917.871,95.437,540.961,538.511,0.0
51883.0,STARLINK-3576,PAYLOAD,2024-03-10 21:05:36,15.08830519,0.000182,53.2184,31.0594,81.9858,278.1341,6.7095e-05,7.8e-06,0.0,0 STARLINK-3576,1 51883U 22022AH  24070.87888907  .00000780  00000-0  67095-4 0  9997,2 51883  53.2184  31.0594 0001820  81.9858 278.1341 15.08830519113216,6917.909,95.438,541.033,538.515,0.0
51883.0,STARLINK-3576,PAYLOAD,2024-03-11 06:37:54,15.08842827,0.000161,53.2165,29.2746,85.77,274.3476,0.00013748,1.901e-05,0.0,0 STARLINK-3576,1 51883U 22022AH  24071.27632212  .00001901  00000-0  13748-3 0  9999,2 51883  53.2165  29.2746 0001610  85.7700 274.3476 15.08842827113276,6917.872,95.437,540.851,538.623,0.0
51883.0,STARLINK-3576,PAYLOAD,2024-03-11 14:34:49,15.08850587,0.0001615,53.2169,27.7885,84.3186,275.799,0.00027316,4.063e-05,0.0,0 STARLINK-3576,1 51883U 22022AH  24071.60751891  .00004063  00000-0  27316-3 0  9999,2 51883  53.2169  27.7885 0001615  84.3186 275.7990 15.08850587113329,6917.848,95.437,540.83,538.596,0.0
